{
  "type": "FeatureCollection",
  "features": [
    {
      "type": "Feature",
      "properties": {
        "norad_id": 32352,
        "name": "FENGYUN 1C DEB",
        "group": "fengyun-1c-debris",
        "lat": -10.12577121531837,
        "lon": 78.4851540480363,
        "alt_km": 671.7991505501832,
        "timestamp": "2025-12-06T05:40:09.530595+00:00",
        "meta_object_name": "FENGYUN 1C DEB",
        "meta_object_id": "1999-025CYV",
        "meta_epoch": "2025-12-03T13:28:47.441280",
        "meta_mean_motion": 14.41397629,
        "meta_eccentricity": 0.01208838,
        "meta_inclination": 98.7762,
        "meta_ra_of_asc_node": 257.3194,
        "meta_arg_of_pericenter": 198.3056,
        "meta_mean_anomaly": 161.3763,
        "meta_ephemeris_type": 0,
        "meta_classification_type": "U",
        "meta_norad_cat_id": 32352,
        "meta_element_set_no": 999,
        "meta_rev_at_epoch": 65137,
        "meta_bstar": 0.00035669846,
        "meta_mean_motion_dot": 1.21e-05,
        "meta_mean_motion_ddot": 0,
        "tle_line1": "1 32352U 99025CYV 25337.56166020  .00001210  00000+0  35670-3 0  9993",
        "tle_line2": "2 32352  98.7762 257.3194 0120883 198.3056 161.3763 14.41397629651376"
      },
      "geometry": {
        "type": "Point",
        "coordinates": [
          78.4851540480363,
          -10.12577121531837
        ]
      }
    },
    {
      "type": "Feature",
      "properties": {
        "norad_id": 32353,
        "name": "FENGYUN 1C DEB",
        "group": "fengyun-1c-debris",
        "lat": 20.657779260567867,
        "lon": -19.791187627347433,
        "alt_km": 831.2311923417756,
        "timestamp": "2025-12-06T05:40:09.530605+00:00",
        "meta_object_name": "FENGYUN 1C DEB",
        "meta_object_id": "1999-025CYW",
        "meta_epoch": "2025-11-11T06:05:01.772736",
        "meta_mean_motion": 14.03377644,
        "meta_eccentricity": 0.01260396,
        "meta_inclination": 98.9214,
        "meta_ra_of_asc_node": 132.3044,
        "meta_arg_of_pericenter": 286.1717,
        "meta_mean_anomaly": 72.5609,
        "meta_ephemeris_type": 0,
        "meta_classification_type": "U",
        "meta_norad_cat_id": 32353,
        "meta_element_set_no": 999,
        "meta_rev_at_epoch": 62752,
        "meta_bstar": 0.0037928572,
        "meta_mean_motion_dot": 6.321e-05,
        "meta_mean_motion_ddot": 0,
        "tle_line1": "1 32353U 99025CYW 25315.25349274  .00006321  00000+0  37929-2 0  9996",
        "tle_line2": "2 32353  98.9214 132.3044 0126039 286.1717  72.5609 14.03377644627521"
      },
      "geometry": {
        "type": "Point",
        "coordinates": [
          -19.791187627347433,
          20.657779260567867
        ]
      }
    },
    {
      "type": "Feature",
      "properties": {
        "norad_id": 32355,
        "name": "FENGYUN 1C DEB",
        "group": "fengyun-1c-debris",
        "lat": 4.321100213399546,
        "lon": -94.52923644232366,
        "alt_km": 468.12783535656854,
        "timestamp": "2025-12-06T05:40:09.530616+00:00",
        "meta_object_name": "FENGYUN 1C DEB",
        "meta_object_id": "1999-025CYY",
        "meta_epoch": "2025-11-30T13:45:12.852288",
        "meta_mean_motion": 15.2698689,
        "meta_eccentricity": 0.00340494,
        "meta_inclination": 100.3462,
        "meta_ra_of_asc_node": 258.4114,
        "meta_arg_of_pericenter": 91.868,
        "meta_mean_anomaly": 83.2659,
        "meta_ephemeris_type": 0,
        "meta_classification_type": "U",
        "meta_norad_cat_id": 32355,
        "meta_element_set_no": 999,
        "meta_rev_at_epoch": 64804,
        "meta_bstar": 0.0114101,
        "meta_mean_motion_dot": 0.00320062,
        "meta_mean_motion_ddot": 0,
        "tle_line1": "1 32355U 99025CYY 25334.57306542  .00320062  00000+0  11410-1 0  9992",
        "tle_line2": "2 32355 100.3462 258.4114 0034049  91.8680  83.2659 15.26986890648042"
      },
      "geometry": {
        "type": "Point",
        "coordinates": [
          -94.52923644232366,
          4.321100213399546
        ]
      }
    },
    {
      "type": "Feature",
      "properties": {
        "norad_id": 32356,
        "name": "FENGYUN 1C DEB",
        "group": "fengyun-1c-debris",
        "lat": 1.1648263118588096,
        "lon": -160.1863038069729,
        "alt_km": 806.4496927051141,
        "timestamp": "2025-12-06T05:40:09.530626+00:00",
        "meta_object_name": "FENGYUN 1C DEB",
        "meta_object_id": "1999-025CYZ",
        "meta_epoch": "2025-12-02T19:31:55.938432",
        "meta_mean_motion": 14.03271885,
        "meta_eccentricity": 0.01242517,
        "meta_inclination": 102.4963,
        "meta_ra_of_asc_node": 195.3889,
        "meta_arg_of_pericenter": 39.4468,
        "meta_mean_anomaly": 321.5651,
        "meta_ephemeris_type": 0,
        "meta_classification_type": "U",
        "meta_norad_cat_id": 32356,
        "meta_element_set_no": 999,
        "meta_rev_at_epoch": 68248,
        "meta_bstar": 0.0027973607,
        "meta_mean_motion_dot": 4.604e-05,
        "meta_mean_motion_ddot": 0,
        "tle_line1": "1 32356U 99025CYZ 25336.81384188  .00004604  00000+0  27974-2 0  9998",
        "tle_line2": "2 32356 102.4963 195.3889 0124251  39.4468 321.5651 14.03271885682488"
      },
      "geometry": {
        "type": "Point",
        "coordinates": [
          -160.1863038069729,
          1.1648263118588096
        ]
      }
    },
    {
      "type": "Feature",
      "properties": {
        "norad_id": 32357,
        "name": "FENGYUN 1C DEB",
        "group": "fengyun-1c-debris",
        "lat": -62.77229685677147,
        "lon": 37.72795778200771,
        "alt_km": 999.8009101132402,
        "timestamp": "2025-12-06T05:40:09.530637+00:00",
        "meta_object_name": "FENGYUN 1C DEB",
        "meta_object_id": "1999-025CZA",
        "meta_epoch": "2025-12-03T20:59:33.570240",
        "meta_mean_motion": 13.68494988,
        "meta_eccentricity": 0.0493325,
        "meta_inclination": 98.8601,
        "meta_ra_of_asc_node": 17.9025,
        "meta_arg_of_pericenter": 211.2254,
        "meta_mean_anomaly": 330.7935,
        "meta_ephemeris_type": 0,
        "meta_classification_type": "U",
        "meta_norad_cat_id": 32357,
        "meta_element_set_no": 999,
        "meta_rev_at_epoch": 66666,
        "meta_bstar": 0.0053758,
        "meta_mean_motion_dot": 0.00010819,
        "meta_mean_motion_ddot": 0,
        "tle_line1": "1 32357U 99025CZA 25337.87469410  .00010819  00000+0  53758-2 0  9992",
        "tle_line2": "2 32357  98.8601  17.9025 0493325 211.2254 330.7935 13.68494988666661"
      },
      "geometry": {
        "type": "Point",
        "coordinates": [
          37.72795778200771,
          -62.77229685677147
        ]
      }
    },
    {
      "type": "Feature",
      "properties": {
        "norad_id": 32361,
        "name": "FENGYUN 1C DEB",
        "group": "fengyun-1c-debris",
        "lat": 74.33496107457697,
        "lon": 5.017490136108243,
        "alt_km": 683.3803715409422,
        "timestamp": "2025-12-06T05:40:09.530647+00:00",
        "meta_object_name": "FENGYUN 1C DEB",
        "meta_object_id": "1999-025CZE",
        "meta_epoch": "2025-11-30T15:14:44.805984",
        "meta_mean_motion": 14.50750787,
        "meta_eccentricity": 0.00468278,
        "meta_inclination": 98.8638,
        "meta_ra_of_asc_node": 32.9334,
        "meta_arg_of_pericenter": 80.9929,
        "meta_mean_anomaly": 279.656,
        "meta_ephemeris_type": 0,
        "meta_classification_type": "U",
        "meta_norad_cat_id": 32361,
        "meta_element_set_no": 999,
        "meta_rev_at_epoch": 96169,
        "meta_bstar": 0.0020354767,
        "meta_mean_motion_dot": 8.08e-05,
        "meta_mean_motion_ddot": 0,
        "tle_line1": "1 32361U 99025CZE 25334.63524081  .00008080  00000+0  20355-2 0  9998",
        "tle_line2": "2 32361  98.8638  32.9334 0046827  80.9929 279.6560 14.50750787961697"
      },
      "geometry": {
        "type": "Point",
        "coordinates": [
          5.017490136108243,
          74.33496107457697
        ]
      }
    },
    {
      "type": "Feature",
      "properties": {
        "norad_id": 32362,
        "name": "FENGYUN 1C DEB",
        "group": "fengyun-1c-debris",
        "lat": -62.23547121261748,
        "lon": -29.43019342808074,
        "alt_km": 821.0782666773885,
        "timestamp": "2025-12-06T05:40:09.530658+00:00",
        "meta_object_name": "FENGYUN 1C DEB",
        "meta_object_id": "1999-025CZF",
        "meta_epoch": "2025-12-04T17:01:44.156640",
        "meta_mean_motion": 13.65103231,
        "meta_eccentricity": 0.02759051,
        "meta_inclination": 99.8436,
        "meta_ra_of_asc_node": 309.7641,
        "meta_arg_of_pericenter": 305.5494,
        "meta_mean_anomaly": 52.0208,
        "meta_ephemeris_type": 0,
        "meta_classification_type": "U",
        "meta_norad_cat_id": 32362,
        "meta_element_set_no": 999,
        "meta_rev_at_epoch": 91020,
        "meta_bstar": 0.0071275938,
        "meta_mean_motion_dot": 7.447e-05,
        "meta_mean_motion_ddot": 0,
        "tle_line1": "1 32362U 99025CZF 25338.70953885  .00007447  00000+0  71276-2 0  9993",
        "tle_line2": "2 32362  99.8436 309.7641 0275905 305.5494  52.0208 13.65103231910209"
      },
      "geometry": {
        "type": "Point",
        "coordinates": [
          -29.43019342808074,
          -62.23547121261748
        ]
      }
    }
  ]
}